ONEWEB-0228             
1 48780U 21045P   24224.92205252  .00000168  00000+0  41226-3 0  9992
2 48780  87.9031  33.3510 0001636  88.0373 272.0945 13.15545193155677
